STARLINK-34436          
1 64358U 25126Q   26176.82887071  .00002490  00000+0  21638-3 0  9992
2 64358  70.0007 121.6514 0003092 267.3726  92.7079 14.98335231 56889
STARLINK-34291          
1 64359U 25126R   26176.24472762  .00003680  00000+0  31596-3 0  9992
2 64359  70.0005 123.2227 0002707 259.3075 100.7779 14.98338789 56795
STARLINK-34458          
1 64360U 25126S   26176.85391691  .00002244  00000+0  19574-3 0  9999
2 64360  70.0004 121.7394 0002978 258.9475 101.1349 14.98335512 56882
STARLINK-34243          
1 64361U 25126T   26176.85792669  .00002775  00000+0  24025-3 0  9996
2 64361  70.0006 121.7573 0003329 263.4044  96.6736 14.98336407 56880
STARLINK-34335          
1 64362U 25126U   26176.83287841  .00003615  00000+0  31062-3 0  9999
2 64362  70.0001 121.6706 0003099 261.7199  98.3609 14.98330905 56884
STARLINK-34408          
1 64363U 25126V   26176.55749036  .00002170  00000+0  18953-3 0  9997
2 64363  70.0004 122.3126 0003003 256.1511 103.9314 14.98337611 56846
STARLINK-34476          
1 64364U 25126W   26176.84540424  .00002536  00000+0  22025-3 0  9991
2 64364  70.0002 121.7120 0003108 267.0844  92.9959 14.98334616 56886
STARLINK-34479          
1 64365U 25126X   26176.55334175  .00003682  00000+0  31617-3 0  9994
2 64365  70.0003 122.6977 0003077 261.9226  98.1584 14.98333348 56838
STARLINK-34484          
1 64366U 25126Y   26176.82870581  .00002774  00000+0  24014-3 0  9995
2 64366  70.0003 121.6517 0003040 262.0701  98.0113 14.98336569 58093
STARLINK-34483          
1 64367U 25126Z   26176.56600448  .00002108  00000+0  18442-3 0  9999
2 64367  70.0006 122.3381 0002909 256.6891 103.3944 14.98335759 56849
STARLINK-34457          
1 64368U 25126AA  26176.87044777  .00002532  00000+0  21992-3 0  9996
2 64368  70.0003 121.7978 0003317 263.3663  96.7119 14.98336785 56881
STARLINK-34444          
1 64369U 25126AB  26176.27394659  .00003587  00000+0  30823-3 0  9992
2 64369  70.0005 123.3269 0003160 266.9215  93.1582 14.98337545 56793
STARLINK-11732 [DTC]    
1 64370U 25127A   26176.41203587  .00231200  00000+0  17478-2 0  9995
2 64370  43.0038 155.2842 0003938 262.9276  97.1143 15.70942187 60447
STARLINK-11731 [DTC]    
1 64371U 25127B   26176.87305402  .00192346  00000+0  14669-2 0  9991
2 64371  42.9997 152.7285 0001473 272.5644  87.5055 15.70858485 60511
STARLINK-11746 [DTC]    
1 64372U 25127C   26176.65044903  .00182753  00000+0  13925-2 0  9999
2 64372  43.0031 153.6201 0001144 275.7940  84.2797 15.70911059 60480
STARLINK-11748 [DTC]    
1 64373U 25127D   26176.63025859  .00215764  00000+0  16390-2 0  9995
2 64373  42.9992 154.3525 0000546   9.7097 350.3781 15.70879686 60473
STARLINK-11739 [DTC]    
1 64374U 25127E   26176.63452412  .00249689  00000+0  18795-2 0  9999
2 64374  42.9978 153.4912 0001821 312.9296  47.1419 15.70991447 60485
STARLINK-11738 [DTC]    
1 64375U 25127F   26176.62934889  .00179025  00000+0  13674-2 0  9999
2 64375  42.9982 154.3449 0000786  22.2682 337.8220 15.70865658 60477
STARLINK-11745 [DTC]    
1 64376U 25127G   26176.66107686  .00240544  00000+0  18219-2 0  9996
2 64376  42.9989 153.7061 0000346  80.7501 279.3405 15.70870972 60480
STARLINK-11742 [DTC]    
1 64377U 25127H   26176.42266159  .00211362  00000+0  16037-2 0  9994
2 64377  43.0003 155.3670 0001855 288.6841  71.3825 15.70920623 60447
STARLINK-11711 [DTC]    
1 64378U 25127J   26176.64514350  .00304748  00000+0  22768-2 0  9997
2 64378  42.9991 153.5768 0001587 298.0674  62.0033 15.71003136 60597
STARLINK-11743 [DTC]    
1 64379U 25127K   26176.87835696  .00223313  00000+0  17010-2 0  9994
2 64379  42.9978 152.7671 0000937 271.8535  88.2225 15.70790926 60514
STARLINK-11744 [DTC]    
1 64380U 25127L   26176.41735375  .00176729  00000+0  13503-2 0  9990
2 64380  42.9983 155.3223 0001092 233.1826 126.8941 15.70864409 60445
STARLINK-11692 [DTC]    
1 64381U 25127M   26176.65576214  .00281373  00000+0  20901-2 0  9994
2 64381  42.9995 153.6612 0002564 300.3421  59.7193 15.71210813 60599
STARLINK-11740 [DTC]    
1 64382U 25127N   26176.63982781  .00348408  00000+0  25864-2 0  9999
2 64382  43.0006 153.5321 0002721 279.9435  80.1125 15.71024425 60485
STARLINK-34299          
1 64383U 25127P   26176.77999949  .00025665  00000+0  93820-3 0  9994
2 64383  42.9991 289.7362 0001469 270.4713  89.5970 15.27605748 58940
STARLINK-34271          
1 64384U 25127Q   26176.76842973  .00022226  00000+0  81373-3 0  9998
2 64384  43.0027 289.6419 0001443 269.3037  90.7649 15.27621540 58993
STARLINK-34100          
1 64385U 25127R   26176.64152205  .00019393  00000+0  71171-3 0  9994
2 64385  43.0037 290.4107 0000956 299.1887  60.8869 15.27611492 58921
STARLINK-34269          
1 64386U 25127S   26176.72602544  .00031633  00000+0  11529-2 0  9991
2 64386  43.0011 289.3212 0001751 261.5158  98.5496 15.27614266 58999
STARLINK-34351          
1 64387U 25127T   26176.59396894  .00019035  00000+0  69897-3 0  9999
2 64387  43.0005 290.0476 0000980 262.6174  97.4566 15.27602684 58972
