OBJECT_NAME,OBJECT_ID,EPOCH,MEAN_MOTION,ECCENTRICITY,INCLINATION,RA_OF_ASC_NODE,ARG_OF_PERICENTER,MEAN_ANOMALY,EPHEMERIS_TYPE,CLASSIFICATION_TYPE,NORAD_CAT_ID,ELEMENT_SET_NO,REV_AT_EPOCH,BSTAR,MEAN_MOTION_DOT,MEAN_MOTION_DDOT
STARLINK-34436,2025-126Q,2026-06-25T19:53:34.429344,14.98335231,.0003092,70.0007,121.6514,267.3726,92.7079,0,U,64358,999,5688,.21638E-3,.249E-4,0
STARLINK-34291,2025-126R,2026-06-25T05:52:24.466368,14.98338789,.0002707,70.0005,123.2227,259.3075,100.7779,0,U,64359,999,5679,.31596E-3,.368E-4,0
STARLINK-34458,2025-126S,2026-06-25T20:29:38.421024,14.98335512,.0002978,70.0004,121.7394,258.9475,101.1349,0,U,64360,999,5688,.19574E-3,.2244E-4,0
STARLINK-34243,2025-126T,2026-06-25T20:35:24.866016,14.98336407,.0003329,70.0006,121.7573,263.4044,96.6736,0,U,64361,999,5688,.24025E-3,.2775E-4,0
STARLINK-34335,2025-126U,2026-06-25T19:59:20.694624,14.98330905,.0003099,70.0001,121.6706,261.7199,98.3609,0,U,64362,999,5688,.31062E-3,.3615E-4,0
STARLINK-34408,2025-126V,2026-06-25T13:22:47.167104,14.98337611,.0003003,70.0004,122.3126,256.1511,103.9314,0,U,64363,999,5684,.18953E-3,.217E-4,0
STARLINK-34476,2025-126W,2026-06-25T20:17:22.926336,14.98334616,.0003108,70.0002,121.7120,267.0844,92.9959,0,U,64364,999,5688,.22025E-3,.2536E-4,0
STARLINK-34479,2025-126X,2026-06-25T13:16:48.727200,14.98333348,.0003077,70.0003,122.6977,261.9226,98.1584,0,U,64365,999,5683,.31617E-3,.3682E-4,0
STARLINK-34484,2025-126Y,2026-06-25T19:53:20.181984,14.98336569,.000304,70.0003,121.6517,262.0701,98.0113,0,U,64366,999,5809,.24014E-3,.2774E-4,0
STARLINK-34483,2025-126Z,2026-06-25T13:35:02.787072,14.98335759,.0002909,70.0006,122.3381,256.6891,103.3944,0,U,64367,999,5684,.18442E-3,.2108E-4,0
STARLINK-34457,2025-126AA,2026-06-25T20:53:26.687328,14.98336785,.0003317,70.0003,121.7978,263.3663,96.7119,0,U,64368,999,5688,.21992E-3,.2532E-4,0
STARLINK-34444,2025-126AB,2026-06-25T06:34:28.985376,14.98337545,.000316,70.0005,123.3269,266.9215,93.1582,0,U,64369,999,5679,.30823E-3,.3587E-4,0
STARLINK-11732 [DTC],2025-127A,2026-06-25T09:53:19.899168,15.70942187,.0003938,43.0038,155.2842,262.9276,97.1143,0,U,64370,999,6044,.17478E-2,.2312E-2,0
STARLINK-11731 [DTC],2025-127B,2026-06-25T20:57:11.867328,15.70858485,.0001473,42.9997,152.7285,272.5644,87.5055,0,U,64371,999,6051,.14669E-2,.192346E-2,0
STARLINK-11746 [DTC],2025-127C,2026-06-25T15:36:38.796192,15.70911059,.0001144,43.0031,153.6201,275.7940,84.2797,0,U,64372,999,6048,.13925E-2,.182753E-2,0
STARLINK-11748 [DTC],2025-127D,2026-06-25T15:07:34.342176,15.70879686,.0000546,42.9992,154.3525,9.7097,350.3781,0,U,64373,999,6047,.1639E-2,.215764E-2,0
STARLINK-11739 [DTC],2025-127E,2026-06-25T15:13:42.883968,15.70991447,.0001821,42.9978,153.4912,312.9296,47.1419,0,U,64374,999,6048,.18795E-2,.249689E-2,0
STARLINK-11738 [DTC],2025-127F,2026-06-25T15:06:15.744096,15.70865658,.0000786,42.9982,154.3449,22.2682,337.8220,0,U,64375,999,6047,.13674E-2,.179025E-2,0
STARLINK-11745 [DTC],2025-127G,2026-06-25T15:51:57.040704,15.70870972,.0000346,42.9989,153.7061,80.7501,279.3405,0,U,64376,999,6048,.18219E-2,.240544E-2,0
STARLINK-11742 [DTC],2025-127H,2026-06-25T10:08:37.961376,15.70920623,.0001855,43.0003,155.3670,288.6841,71.3825,0,U,64377,999,6044,.16037E-2,.211362E-2,0
STARLINK-11711 [DTC],2025-127J,2026-06-25T15:29:00.398400,15.71003136,.0001587,42.9991,153.5768,298.0674,62.0033,0,U,64378,999,6059,.22768E-2,.304748E-2,0
STARLINK-11743 [DTC],2025-127K,2026-06-25T21:04:50.041344,15.70790926,.0000937,42.9978,152.7671,271.8535,88.2225,0,U,64379,999,6051,.1701E-2,.223313E-2,0
STARLINK-11744 [DTC],2025-127L,2026-06-25T10:00:59.364000,15.70864409,.0001092,42.9983,155.3223,233.1826,126.8941,0,U,64380,999,6044,.13503E-2,.176729E-2,0
STARLINK-11692 [DTC],2025-127M,2026-06-25T15:44:17.848896,15.71210813,.0002564,42.9995,153.6612,300.3421,59.7193,0,U,64381,999,6059,.20901E-2,.281373E-2,0
STARLINK-11740 [DTC],2025-127N,2026-06-25T15:21:21.122784,15.71024425,.0002721,43.0006,153.5321,279.9435,80.1125,0,U,64382,999,6048,.25864E-2,.348408E-2,0
STARLINK-34299,2025-127P,2026-06-25T18:43:11.955936,15.27605748,.0001469,42.9991,289.7362,270.4713,89.5970,0,U,64383,999,5894,.9382E-3,.25665E-3,0
STARLINK-34271,2025-127Q,2026-06-25T18:26:32.328672,15.27621540,.0001443,43.0027,289.6419,269.3037,90.7649,0,U,64384,999,5899,.81373E-3,.22226E-3,0
STARLINK-34100,2025-127R,2026-06-25T15:23:47.505120,15.27611492,.0000956,43.0037,290.4107,299.1887,60.8869,0,U,64385,999,5892,.71171E-3,.19393E-3,0
STARLINK-34269,2025-127S,2026-06-25T17:25:28.598016,15.27614266,.0001751,43.0011,289.3212,261.5158,98.5496,0,U,64386,999,5899,.11529E-2,.31633E-3,0
STARLINK-34351,2025-127T,2026-06-25T14:15:18.916416,15.27602684,.000098,43.0005,290.0476,262.6174,97.4566,0,U,64387,999,5897,.69897E-3,.19035E-3,0
